CTC1_L_00283001-01
1 43776U 25614BQ  26070.40834491  .00000000  00000+0  00000-0 0  9992
2 43776  45.0000   0.0000 0000000   0.0000   0.0000 15.18623435    17
CTC1_L_00283001-02
1 43777U 22094MO  26070.40834491  .00000000  00000+0  00000-0 0  9992
2 43777  45.0000   0.0000 0000000   0.0000  90.0000 15.18623435    17
CTC1_L_00283001-03
1 43778U 23428EN  26070.40834491  .00000000  00000+0  00000-0 0  9995
2 43778  45.0000   0.0000 0000000   0.0000 180.0000 15.18623435    18
CTC1_L_00283001-04
1 43779U 25396OK  26070.40834491  .00000000  00000+0  00000-0 0  9992
2 43779  45.0000   0.0000 0000000   0.0000 270.0000 15.18623435    19
CTC1_L_00283002-01
1 43780U 22160PE  26070.40834491  .00000000  00000+0  00000-0 0  9990
2 43780  45.0000  12.0000 0000000   0.0000  12.0000 15.18623435    18
CTC1_L_00283002-02
1 43781U 24340EK  26070.40834491  .00000000  00000+0  00000-0 0  9993
2 43781  45.0000  12.0000 0000000   0.0000 102.0000 15.18623435    19
CTC1_L_00283002-03
1 43782U 22037OJ  26070.40834491  .00000000  00000+0  00000-0 0  9995
2 43782  45.0000  12.0000 0000000   0.0000 192.0000 15.18623435    19
CTC1_L_00283002-04
1 43783U 22861OJ  26070.40834491  .00000000  00000+0  00000-0 0  9991
2 43783  45.0000  12.0000 0000000   0.0000 282.0000 15.18623435    10
CTC1_L_00283003-01
1 43784U 24272TE  26070.40834491  .00000000  00000+0  00000-0 0  9990
2 43784  45.0000  24.0000 0000000   0.0000  24.0000 15.18623435    18
CTC1_L_00283003-02
1 43785U 22628ZP  26070.40834491  .00000000  00000+0  00000-0 0  9994
2 43785  45.0000  24.0000 0000000   0.0000 114.0000 15.18623435    19
CTC1_L_00283003-03
1 43786U 25388YU  26070.40834491  .00000000  00000+0  00000-0 0  9991
2 43786  45.0000  24.0000 0000000   0.0000 204.0000 15.18623435    10
CTC1_L_00283003-04
1 43787U 25601QR  26070.40834491  .00000000  00000+0  00000-0 0  9990
2 43787  45.0000  24.0000 0000000   0.0000 294.0000 15.18623435    10
CTC1_L_00283004-01
1 43788U 24222ZG  26070.40834491  .00000000  00000+0  00000-0 0  9999
2 43788  45.0000  36.0000 0000000   0.0000  36.0000 15.18623435    18
CTC1_L_00283004-02
1 43789U 24174NQ  26070.40834491  .00000000  00000+0  00000-0 0  9996
2 43789  45.0000  36.0000 0000000   0.0000 126.0000 15.18623435    19
CTC1_L_00283004-03
1 43790U 23065YN  26070.40834491  .00000000  00000+0  00000-0 0  9996
2 43790  45.0000  36.0000 0000000   0.0000 216.0000 15.18623435    11
CTC1_L_00283004-04
1 43791U 24129AB  26070.40834491  .00000000  00000+0  00000-0 0  9999
2 43791  45.0000  36.0000 0000000   0.0000 306.0000 15.18623435    12
CTC1_L_00283005-01
1 43792U 25279YR  26070.40834491  .00000000  00000+0  00000-0 0  9997
2 43792  45.0000  48.0000 0000000   0.0000  48.0000 15.18623435    19
CTC1_L_00283005-02
1 43793U 25960RM  26070.40834491  .00000000  00000+0  00000-0 0  9995
2 43793  45.0000  48.0000 0000000   0.0000 138.0000 15.18623435    10
CTC1_L_00283005-03
1 43794U 22667QS  26070.40834491  .00000000  00000+0  00000-0 0  9997
2 43794  45.0000  48.0000 0000000   0.0000 228.0000 15.18623435    11
CTC1_L_00283005-04
1 43795U 25372YQ  26070.40834491  .00000000  00000+0  00000-0 0  9994
2 43795  45.0000  48.0000 0000000   0.0000 318.0000 15.18623435    12
CTC1_L_00283006-01
1 43796U 23632HX  26070.40834491  .00000000  00000+0  00000-0 0  9992
2 43796  45.0000  60.0000 0000000   0.0000  60.0000 15.18623435    11
CTC1_L_00283006-02
1 43797U 26105HW  26070.40834491  .00000000  00000+0  00000-0 0  9991
2 43797  45.0000  60.0000 0000000   0.0000 150.0000 15.18623435    12
CTC1_L_00283006-03
1 43798U 26750YC  26070.40834491  .00000000  00000+0  00000-0 0  9998
2 43798  45.0000  60.0000 0000000   0.0000 240.0000 15.18623435    13
CTC1_L_00283006-04
1 43799U 22479MV  26070.40834491  .00000000  00000+0  00000-0 0  9993
2 43799  45.0000  60.0000 0000000   0.0000 330.0000 15.18623435    14
CTC1_L_00283007-01
1 43800U 23953TY  26070.40834491  .00000000  00000+0  00000-0 0  9994
2 43800  45.0000  72.0000 0000000   0.0000  72.0000 15.18623435    13
CTC1_L_00283007-02
1 43801U 24905MA  26070.40834491  .00000000  00000+0  00000-0 0  9993
2 43801  45.0000  72.0000 0000000   0.0000 162.0000 15.18623435    14
CTC1_L_00283007-03
1 43802U 22125RP  26070.40834491  .00000000  00000+0  00000-0 0  9996
2 43802  45.0000  72.0000 0000000   0.0000 252.0000 15.18623435    15
CTC1_L_00283007-04
1 43803U 26272HY  26070.40834491  .00000000  00000+0  00000-0 0  9994
2 43803  45.0000  72.0000 0000000   0.0000 342.0000 15.18623435    16
CTC1_L_00283008-01
1 43804U 22974RL  26070.40834491  .00000000  00000+0  00000-0 0  9990
2 43804  45.0000  84.0000 0000000   0.0000  84.0000 15.18623435    13
CTC1_L_00283008-02
1 43805U 25446MC  26070.40834491  .00000000  00000+0  00000-0 0  9998
2 43805  45.0000  84.0000 0000000   0.0000 174.0000 15.18623435    14
CTC1_L_00283008-03
1 43806U 24071AE  26070.40834491  .00000000  00000+0  00000-0 0  9992
2 43806  45.0000  84.0000 0000000   0.0000 264.0000 15.18623435    15
CTC1_L_00283008-04
1 43807U 24385SV  26070.40834491  .00000000  00000+0  00000-0 0  9991
2 43807  45.0000  84.0000 0000000   0.0000 354.0000 15.18623435    16
CTC1_L_00283009-01
1 43808U 25692FM  26070.40834491  .00000000  00000+0  00000-0 0  9994
2 43808  45.0000  96.0000 0000000   0.0000  96.0000 15.18623435    13
CTC1_L_00283009-02
1 43809U 24783LZ  26070.40834491  .00000000  00000+0  00000-0 0  9995
2 43809  45.0000  96.0000 0000000   0.0000 186.0000 15.18623435    14
CTC1_L_00283009-03
1 43810U 24099QY  26070.40834491  .00000000  00000+0  00000-0 0  9997
2 43810  45.0000  96.0000 0000000   0.0000 276.0000 15.18623435    16
CTC1_L_00283009-04
1 43811U 24348LN  26070.40834491  .00000000  00000+0  00000-0 0  9995
2 43811  45.0000  96.0000 0000000   0.0000   6.0000 15.18623435    18
CTC1_L_00283010-01
1 43812U 24296YQ  26070.40834491  .00000000  00000+0  00000-0 0  9998
2 43812  45.0000 108.0000 0000000   0.0000 108.0000 15.18623435    16
CTC1_L_00283010-02
1 43813U 23884CD  26070.40834491  .00000000  00000+0  00000-0 0  9991
2 43813  45.0000 108.0000 0000000   0.0000 198.0000 15.18623435    16
CTC1_L_00283010-03
1 43814U 26929DC  26070.40834491  .00000000  00000+0  00000-0 0  9995
2 43814  45.0000 108.0000 0000000   0.0000 288.0000 15.18623435    17
CTC1_L_00283010-04
1 43815U 25115IA  26070.40834491  .00000000  00000+0  00000-0 0  9992
2 43815  45.0000 108.0000 0000000   0.0000  18.0000 15.18623435    19
CTC1_L_00283011-01
1 43816U 24560L   26070.40834491  .00000000  00000+0  00000-0 0  9996
2 43816  45.0000 120.0000 0000000   0.0000 120.0000 15.18623435    18
CTC1_L_00283011-02
1 43817U 22882UF  26070.40834491  .00000000  00000+0  00000-0 0  9992
2 43817  45.0000 120.0000 0000000   0.0000 210.0000 15.18623435    19
CTC1_L_00283011-03
1 43818U 25844I   26070.40834491  .00000000  00000+0  00000-0 0  9994
2 43818  45.0000 120.0000 0000000   0.0000 300.0000 15.18623435    10
CTC1_L_00283011-04
1 43819U 22235AH  26070.40834491  .00000000  00000+0  00000-0 0  9996
2 43819  45.0000 120.0000 0000000   0.0000  30.0000 15.18623435    11
CTC1_L_00283012-01
1 43820U 24811DN  26070.40834491  .00000000  00000+0  00000-0 0  9990
2 43820  45.0000 132.0000 0000000   0.0000 132.0000 15.18623435    19
CTC1_L_00283012-02
1 43821U 25609GZ  26070.40834491  .00000000  00000+0  00000-0 0  9997
2 43821  45.0000 132.0000 0000000   0.0000 222.0000 15.18623435    10
CTC1_L_00283012-03
1 43822U 23404GY  26070.40834491  .00000000  00000+0  00000-0 0  9999
2 43822  45.0000 132.0000 0000000   0.0000 312.0000 15.18623435    11
CTC1_L_00283012-04
1 43823U 23489YI  26070.40834491  .00000000  00000+0  00000-0 0  9993
2 43823  45.0000 132.0000 0000000   0.0000  42.0000 15.18623435    12
CTC1_L_00283013-01
1 43824U 24279KR  26070.40834491  .00000000  00000+0  00000-0 0  9992
2 43824  45.0000 144.0000 0000000   0.0000 144.0000 15.18623435    19
CTC1_L_00283013-02
1 43825U 24705YE  26070.40834491  .00000000  00000+0  00000-0 0  9997
2 43825  45.0000 144.0000 0000000   0.0000 234.0000 15.18623435    10
CTC1_L_00283013-03
1 43826U 23013BN  26070.40834491  .00000000  00000+0  00000-0 0  9999
2 43826  45.0000 144.0000 0000000   0.0000 324.0000 15.18623435    11
CTC1_L_00283013-04
1 43827U 26272TY  26070.40834491  .00000000  00000+0  00000-0 0  9990
2 43827  45.0000 144.0000 0000000   0.0000  54.0000 15.18623435    12
CTC1_L_00283014-01
1 43828U 22091BF  26070.40834491  .00000000  00000+0  00000-0 0  9996
2 43828  45.0000 156.0000 0000000   0.0000 156.0000 15.18623435    19
CTC1_L_00283014-02
1 43829U 23376MF  26070.40834491  .00000000  00000+0  00000-0 0  9994
2 43829  45.0000 156.0000 0000000   0.0000 246.0000 15.18623435    10
CTC1_L_00283014-03
1 43830U 23273C   26070.40834491  .00000000  00000+0  00000-0 0  9992
2 43830  45.0000 156.0000 0000000   0.0000 336.0000 15.18623435    12
CTC1_L_00283014-04
1 43831U 23374ZB  26070.40834491  .00000000  00000+0  00000-0 0  9995
2 43831  45.0000 156.0000 0000000   0.0000  66.0000 15.18623435    13
CTC1_L_00283015-01
1 43832U 25851ZM  26070.40834491  .00000000  00000+0  00000-0 0  9998
2 43832  45.0000 168.0000 0000000   0.0000 168.0000 15.18623435    10
CTC1_L_00283015-02
1 43833U 22917BE  26070.40834491  .00000000  00000+0  00000-0 0  9999
2 43833  45.0000 168.0000 0000000   0.0000 258.0000 15.18623435    11
CTC1_L_00283015-03
1 43834U 23074DK  26070.40834491  .00000000  00000+0  00000-0 0  9995
2 43834  45.0000 168.0000 0000000   0.0000 348.0000 15.18623435    12
CTC1_L_00283015-04
1 43835U 22095Y   26070.40834491  .00000000  00000+0  00000-0 0  9998
2 43835  45.0000 168.0000 0000000   0.0000  78.0000 15.18623435    13
CTC1_L_00283016-01
1 43836U 24794UE  26070.40834491  .00000000  00000+0  00000-0 0  9997
2 43836  45.0000 180.0000 0000000   0.0000 180.0000 15.18623435    12
CTC1_L_00283016-02
1 43837U 26218TY  26070.40834491  .00000000  00000+0  00000-0 0  9991
2 43837  45.0000 180.0000 0000000   0.0000 270.0000 15.18623435    13
